[{"OBJECT_NAME":"ONEWEB-0596","OBJECT_ID":"2022-166W","EPOCH":"2025-10-24T17:43:22.580256","MEAN_MOTION":13.21818791,"ECCENTRICITY":0.0001898,"INCLINATION":87.9167,"RA_OF_ASC_NODE":290.9643,"ARG_OF_PERICENTER":86.19,"MEAN_ANOMALY":273.945,"EPHEMERIS_TYPE":0,"CLASSIFICATION_TYPE":"U","NORAD_CAT_ID":54662,"ELEMENT_SET_NO":999,"REV_AT_EPOCH":14043,"BSTAR":0.0025551,"MEAN_MOTION_DOT":1.068e-5,"MEAN_MOTION_DDOT":0},{"OBJECT_NAME":"ONEWEB-0597","OBJECT_ID":"2022-166X","EPOCH":"2025-10-24T11:50:18.106368","MEAN_MOTION":13.21803597,"ECCENTRICITY":0.0001725,"INCLINATION":87.9165,"RA_OF_ASC_NODE":291.0179,"ARG_OF_PERICENTER":86.557,"MEAN_ANOMALY":273.5761,"EPHEMERIS_TYPE":0,"CLASSIFICATION_TYPE":"U","NORAD_CAT_ID":54663,"ELEMENT_SET_NO":999,"REV_AT_EPOCH":14040,"BSTAR":0.0088652,"MEAN_MOTION_DOT":3.675e-5,"MEAN_MOTION_DDOT":0},{"OBJECT_NAME":"ONEWEB-0600","OBJECT_ID":"2022-166Y","EPOCH":"2025-10-24T16:51:14.618592","MEAN_MOTION":13.21816485,"ECCENTRICITY":0.000184,"INCLINATION":87.9165,"RA_OF_ASC_NODE":290.9671,"ARG_OF_PERICENTER":91.4199,"MEAN_ANOMALY":268.7146,"EPHEMERIS_TYPE":0,"CLASSIFICATION_TYPE":"U","NORAD_CAT_ID":54664,"ELEMENT_SET_NO":999,"REV_AT_EPOCH":14040,"BSTAR":0.0038585,"MEAN_MOTION_DOT":1.607e-5,"MEAN_MOTION_DDOT":0},{"OBJECT_NAME":"ONEWEB-0601","OBJECT_ID":"2022-166Z","EPOCH":"2025-10-24T16:39:23.919840","MEAN_MOTION":13.21825533,"ECCENTRICITY":0.0001614,"INCLINATION":87.9167,"RA_OF_ASC_NODE":290.9864,"ARG_OF_PERICENTER":83.1826,"MEAN_ANOMALY":276.9492,"EPHEMERIS_TYPE":0,"CLASSIFICATION_TYPE":"U","NORAD_CAT_ID":54665,"ELEMENT_SET_NO":999,"REV_AT_EPOCH":14059,"BSTAR":4.4546e-5,"MEAN_MOTION_DOT":3.1e-7,"MEAN_MOTION_DDOT":0},{"OBJECT_NAME":"ONEWEB-0602","OBJECT_ID":"2022-166AA","EPOCH":"2025-10-24T12:10:23.345760","MEAN_MOTION":13.21776804,"ECCENTRICITY":0.0001601,"INCLINATION":87.917,"RA_OF_ASC_NODE":291.027,"ARG_OF_PERICENTER":96.6827,"MEAN_ANOMALY":263.4489,"EPHEMERIS_TYPE":0,"CLASSIFICATION_TYPE":"U","NORAD_CAT_ID":54666,"ELEMENT_SET_NO":999,"REV_AT_EPOCH":14041,"BSTAR":0.020498,"MEAN_MOTION_DOT":8.481e-5,"MEAN_MOTION_DDOT":0},{"OBJECT_NAME":"ONEWEB-0603","OBJECT_ID":"2022-166AB","EPOCH":"2025-10-24T17:45:44.563104","MEAN_MOTION":13.21818518,"ECCENTRICITY":0.0001738,"INCLINATION":87.9177,"RA_OF_ASC_NODE":290.9161,"ARG_OF_PERICENTER":88.8706,"MEAN_ANOMALY":271.2627,"EPHEMERIS_TYPE":0,"CLASSIFICATION_TYPE":"U","NORAD_CAT_ID":54667,"ELEMENT_SET_NO":999,"REV_AT_EPOCH":14037,"BSTAR":0.0028602,"MEAN_MOTION_DOT":1.194e-5,"MEAN_MOTION_DDOT":0},{"OBJECT_NAME":"ONEWEB-0604","OBJECT_ID":"2022-166AC","EPOCH":"2025-10-24T17:29:07.017216","MEAN_MOTION":13.21809155,"ECCENTRICITY":0.0001697,"INCLINATION":87.9169,"RA_OF_ASC_NODE":290.9415,"ARG_OF_PERICENTER":90.8446,"MEAN_ANOMALY":269.2882,"EPHEMERIS_TYPE":0,"CLASSIFICATION_TYPE":"U","NORAD_CAT_ID":54668,"ELEMENT_SET_NO":999,"REV_AT_EPOCH":14033,"BSTAR":0.0077179,"MEAN_MOTION_DOT":3.201e-5,"MEAN_MOTION_DDOT":0},{"OBJECT_NAME":"ONEWEB-0605","OBJECT_ID":"2022-166AD","EPOCH":"2025-10-24T17:19:40.449216","MEAN_MOTION":13.21805376,"ECCENTRICITY":0.0001677,"INCLINATION":87.9163,"RA_OF_ASC_NODE":290.9723,"ARG_OF_PERICENTER":68.9445,"MEAN_ANOMALY":291.1868,"EPHEMERIS_TYPE":0,"CLASSIFICATION_TYPE":"U","NORAD_CAT_ID":54669,"ELEMENT_SET_NO":999,"REV_AT_EPOCH":14040,"BSTAR":0.0068103,"MEAN_MOTION_DOT":2.826e-5,"MEAN_MOTION_DDOT":0},{"OBJECT_NAME":"ONEWEB-0606","OBJECT_ID":"2022-166AE","EPOCH":"2025-10-24T17:50:28.921056","MEAN_MOTION":13.21817404,"ECCENTRICITY":0.0002027,"INCLINATION":87.9166,"RA_OF_ASC_NODE":290.9783,"ARG_OF_PERICENTER":90.061,"MEAN_ANOMALY":270.0756,"EPHEMERIS_TYPE":0,"CLASSIFICATION_TYPE":"U","NORAD_CAT_ID":54670,"ELEMENT_SET_NO":999,"REV_AT_EPOCH":14046,"BSTAR":0.0030323,"MEAN_MOTION_DOT":1.265e-5,"MEAN_MOTION_DDOT":0},{"OBJECT_NAME":"ONEWEB-0607","OBJECT_ID":"2022-166AF","EPOCH":"2025-10-24T17:03:05.365728","MEAN_MOTION":13.21816417,"ECCENTRICITY":0.0001788,"INCLINATION":87.9167,"RA_OF_ASC_NODE":290.9479,"ARG_OF_PERICENTER":85.0068,"MEAN_ANOMALY":275.127,"EPHEMERIS_TYPE":0,"CLASSIFICATION_TYPE":"U","NORAD_CAT_ID":54671,"ELEMENT_SET_NO":999,"REV_AT_EPOCH":14043,"BSTAR":0.0029408,"MEAN_MOTION_DOT":1.228e-5,"MEAN_MOTION_DDOT":0},{"OBJECT_NAME":"ONEWEB-0608","OBJECT_ID":"2022-166AG","EPOCH":"2025-10-24T17:12:33.877728","MEAN_MOTION":13.21807774,"ECCENTRICITY":0.000148,"INCLINATION":87.917,"RA_OF_ASC_NODE":290.9319,"ARG_OF_PERICENTER":75.867,"MEAN_ANOMALY":284.2628,"EPHEMERIS_TYPE":0,"CLASSIFICATION_TYPE":"U","NORAD_CAT_ID":54672,"ELEMENT_SET_NO":999,"REV_AT_EPOCH":14044,"BSTAR":0.0066365,"MEAN_MOTION_DOT":2.754e-5,"MEAN_MOTION_DDOT":0},{"OBJECT_NAME":"ONEWEB-0610","OBJECT_ID":"2022-166AH","EPOCH":"2025-10-24T13:06:06.154848","MEAN_MOTION":13.21823613,"ECCENTRICITY":0.0001365,"INCLINATION":87.9166,"RA_OF_ASC_NODE":291.0028,"ARG_OF_PERICENTER":75.1301,"MEAN_ANOMALY":284.9984,"EPHEMERIS_TYPE":0,"CLASSIFICATION_TYPE":"U","NORAD_CAT_ID":54673,"ELEMENT_SET_NO":999,"REV_AT_EPOCH":14032,"BSTAR":0.00062892,"MEAN_MOTION_DOT":2.73e-6,"MEAN_MOTION_DDOT":0},{"OBJECT_NAME":"ONEWEB-0611","OBJECT_ID":"2022-166AJ","EPOCH":"2025-10-24T16:34:37.651584","MEAN_MOTION":13.21835006,"ECCENTRICITY":0.000202,"INCLINATION":87.9167,"RA_OF_ASC_NODE":290.9695,"ARG_OF_PERICENTER":93.7892,"MEAN_ANOMALY":266.3472,"EPHEMERIS_TYPE":0,"CLASSIFICATION_TYPE":"U","NORAD_CAT_ID":54674,"ELEMENT_SET_NO":999,"REV_AT_EPOCH":14033,"BSTAR":-0.0027478,"MEAN_MOTION_DOT":-1.122e-5,"MEAN_MOTION_DDOT":0},{"OBJECT_NAME":"ONEWEB-0612","OBJECT_ID":"2022-166AK","EPOCH":"2025-10-24T16:53:36.083040","MEAN_MOTION":13.21821249,"ECCENTRICITY":0.0001638,"INCLINATION":87.916,"RA_OF_ASC_NODE":290.9452,"ARG_OF_PERICENTER":85.9322,"MEAN_ANOMALY":274.1999,"EPHEMERIS_TYPE":0,"CLASSIFICATION_TYPE":"U","NORAD_CAT_ID":54675,"ELEMENT_SET_NO":999,"REV_AT_EPOCH":14032,"BSTAR":0.0020806,"MEAN_MOTION_DOT":8.72e-6,"MEAN_MOTION_DDOT":0},{"OBJECT_NAME":"ONEWEB-0615","OBJECT_ID":"2022-166AL","EPOCH":"2025-10-24T16:25:09.173280","MEAN_MOTION":13.21840497,"ECCENTRICITY":0.0001848,"INCLINATION":87.9169,"RA_OF_ASC_NODE":290.9757,"ARG_OF_PERICENTER":88.2545,"MEAN_ANOMALY":271.8801,"EPHEMERIS_TYPE":0,"CLASSIFICATION_TYPE":"U","NORAD_CAT_ID":54676,"ELEMENT_SET_NO":999,"REV_AT_EPOCH":14033,"BSTAR":-0.0060882,"MEAN_MOTION_DOT":-2.501e-5,"MEAN_MOTION_DDOT":0},{"OBJECT_NAME":"ONEWEB-0655","OBJECT_ID":"2022-166AM","EPOCH":"2025-10-24T17:38:37.684896","MEAN_MOTION":13.2179798,"ECCENTRICITY":0.0001595,"INCLINATION":87.9167,"RA_OF_ASC_NODE":290.9711,"ARG_OF_PERICENTER":93.6535,"MEAN_ANOMALY":266.4781,"EPHEMERIS_TYPE":0,"CLASSIFICATION_TYPE":"U","NORAD_CAT_ID":54677,"ELEMENT_SET_NO":999,"REV_AT_EPOCH":14033,"BSTAR":0.010853,"MEAN_MOTION_DOT":4.495e-5,"MEAN_MOTION_DDOT":0},{"OBJECT_NAME":"ONEWEB-0659","OBJECT_ID":"2022-166AN","EPOCH":"2025-10-24T16:13:20.053920","MEAN_MOTION":13.21806573,"ECCENTRICITY":0.0001942,"INCLINATION":87.9165,"RA_OF_ASC_NODE":290.9828,"ARG_OF_PERICENTER":88.161,"MEAN_ANOMALY":271.9746,"EPHEMERIS_TYPE":0,"CLASSIFICATION_TYPE":"U","NORAD_CAT_ID":54678,"ELEMENT_SET_NO":999,"REV_AT_EPOCH":14041,"BSTAR":0.0087273,"MEAN_MOTION_DOT":3.618e-5,"MEAN_MOTION_DDOT":0},{"OBJECT_NAME":"ONEWEB-0685","OBJECT_ID":"2022-166AP","EPOCH":"2025-10-24T18:03:21.623040","MEAN_MOTION":13.21830856,"ECCENTRICITY":0.0001609,"INCLINATION":87.9166,"RA_OF_ASC_NODE":290.9636,"ARG_OF_PERICENTER":84.7098,"MEAN_ANOMALY":275.4219,"EPHEMERIS_TYPE":0,"CLASSIFICATION_TYPE":"U","NORAD_CAT_ID":54679,"ELEMENT_SET_NO":999,"REV_AT_EPOCH":14031,"BSTAR":-2.0981e-5,"MEAN_MOTION_DOT":4.0e-8,"MEAN_MOTION_DDOT":0},{"OBJECT_NAME":"ONEWEB-0712","OBJECT_ID":"2022-166AQ","EPOCH":"2025-10-24T11:15:59.712768","MEAN_MOTION":13.16595015,"ECCENTRICITY":0.0001576,"INCLINATION":87.8988,"RA_OF_ASC_NODE":275.7236,"ARG_OF_PERICENTER":101.9688,"MEAN_ANOMALY":258.162,"EPHEMERIS_TYPE":0,"CLASSIFICATION_TYPE":"U","NORAD_CAT_ID":54680,"ELEMENT_SET_NO":999,"REV_AT_EPOCH":14104,"BSTAR":0.00023301,"MEAN_MOTION_DOT":1.02e-6,"MEAN_MOTION_DDOT":0},{"OBJECT_NAME":"ONEWEB-0714","OBJECT_ID":"2022-166AR","EPOCH":"2025-10-24T10:55:46.380288","MEAN_MOTION":13.21841593,"ECCENTRICITY":0.0001656,"INCLINATION":87.9168,"RA_OF_ASC_NODE":291.0166,"ARG_OF_PERICENTER":89.1336,"MEAN_ANOMALY":270.9988,"EPHEMERIS_TYPE":0,"CLASSIFICATION_TYPE":"U","NORAD_CAT_ID":54681,"ELEMENT_SET_NO":999,"REV_AT_EPOCH":14039,"BSTAR":-0.0069947,"MEAN_MOTION_DOT":-2.876e-5,"MEAN_MOTION_DDOT":0},{"OBJECT_NAME":"ONEWEB-0532","OBJECT_ID":"2023-004A","EPOCH":"2025-10-24T18:47:39.897888","MEAN_MOTION":13.17649361,"ECCENTRICITY":0.000169,"INCLINATION":87.9124,"RA_OF_ASC_NODE":52.6676,"ARG_OF_PERICENTER":86.015,"MEAN_ANOMALY":274.1175,"EPHEMERIS_TYPE":0,"CLASSIFICATION_TYPE":"U","NORAD_CAT_ID":55140,"ELEMENT_SET_NO":999,"REV_AT_EPOCH":13658,"BSTAR":2.1276e-5,"MEAN_MOTION_DOT":2.1e-7,"MEAN_MOTION_DDOT":0},{"OBJECT_NAME":"ONEWEB-0533","OBJECT_ID":"2023-004B","EPOCH":"2025-10-24T17:34:15.910176","MEAN_MOTION":13.1244269,"ECCENTRICITY":0.0001574,"INCLINATION":87.8971,"RA_OF_ASC_NODE":37.4366,"ARG_OF_PERICENTER":103.9729,"MEAN_ANOMALY":256.1574,"EPHEMERIS_TYPE":0,"CLASSIFICATION_TYPE":"U","NORAD_CAT_ID":55141,"ELEMENT_SET_NO":999,"REV_AT_EPOCH":13717,"BSTAR":0.0011794,"MEAN_MOTION_DOT":4.37e-6,"MEAN_MOTION_DDOT":0},{"OBJECT_NAME":"ONEWEB-0541","OBJECT_ID":"2023-004C","EPOCH":"2025-10-24T17:31:53.441760","MEAN_MOTION":13.11418183,"ECCENTRICITY":0.0001737,"INCLINATION":87.884,"RA_OF_ASC_NODE":67.9367,"ARG_OF_PERICENTER":94.9786,"MEAN_ANOMALY":265.154,"EPHEMERIS_TYPE":0,"CLASSIFICATION_TYPE":"U","NORAD_CAT_ID":55142,"ELEMENT_SET_NO":999,"REV_AT_EPOCH":13508,"BSTAR":0.0010595,"MEAN_MOTION_DOT":3.88e-6,"MEAN_MOTION_DDOT":0},{"OBJECT_NAME":"ONEWEB-0543","OBJECT_ID":"2023-004D","EPOCH":"2025-10-24T19:04:40.757088","MEAN_MOTION":13.18684879,"ECCENTRICITY":0.0001789,"INCLINATION":87.9209,"RA_OF_ASC_NODE":22.2525,"ARG_OF_PERICENTER":109.9582,"MEAN_ANOMALY":250.1743,"EPHEMERIS_TYPE":0,"CLASSIFICATION_TYPE":"U","NORAD_CAT_ID":55143,"ELEMENT_SET_NO":999,"REV_AT_EPOCH":13867,"BSTAR":1.9654e-6,"MEAN_MOTION_DOT":1.4e-7,"MEAN_MOTION_DDOT":0}]
